[{"OBJECT_NAME":"TIANMU-1 20","OBJECT_ID":"2023-208B","EPOCH":"2026-03-09T21:50:45.859200","MEAN_MOTION":15.31029249,"ECCENTRICITY":0.00061925,"INCLINATION":97.4323,"RA_OF_ASC_NODE":185.4313,"ARG_OF_PERICENTER":324.1763,"MEAN_ANOMALY":35.9062,"EPHEMERIS_TYPE":0,"CLASSIFICATION_TYPE":"U","NORAD_CAT_ID":58661,"ELEMENT_SET_NO":999,"REV_AT_EPOCH":12222,"BSTAR":0.0003681641,"MEAN_MOTION_DOT":0.00010969,"MEAN_MOTION_DDOT":0},{"OBJECT_NAME":"STARLINK-35767","OBJECT_ID":"2025-294AE","EPOCH":"2026-03-09T06:45:48.990528","MEAN_MOTION":15.27600826,"ECCENTRICITY":0.00042303,"INCLINATION":43.0039,"RA_OF_ASC_NODE":40.6469,"ARG_OF_PERICENTER":243.671,"MEAN_ANOMALY":116.3707,"EPHEMERIS_TYPE":0,"CLASSIFICATION_TYPE":"U","NORAD_CAT_ID":67058,"ELEMENT_SET_NO":999,"REV_AT_EPOCH":1473,"BSTAR":0.0013143484,"MEAN_MOTION_DOT":0.00036113,"MEAN_MOTION_DDOT":0}]
